TISAT 1                 
1 36799U 10035E   26068.75703561  .00024554  00000+0  91005-3 0  9996
2 36799  98.0645   6.8512 0001343 159.3030 200.8262 15.27628633852505
STARLINK-30962          
1 58458U 23183X   26068.30330837 -.00001070  00000+0 -30200-4 0  9994
2 58458  43.0039  43.0767 0002305 272.6692  87.3895 15.26735702126683
